{"type": "FeatureCollection", "features": [ {"type": "Feature", "properties": {"norad_id": 66365, "name": "STARLINK-35827", "group": "last-30-days", "lat": -49.8774254985122, "lon": -157.08242325802132, "alt_km": 386.5114391803818, "timestamp": "2025-12-03T15:48:01.918309+00:00", "meta": {"OBJECT_NAME": "STARLINK-35827", "OBJECT_ID": "2025-254T", "EPOCH": "2025-12-03T08:00:01.999872", "MEAN_MOTION": 15.63790656, "ECCENTRICITY": 0.00013776, "INCLINATION": 53.1597, "RA_OF_ASC_NODE": 321.6779, "ARG_OF_PERICENTER": 86.9991, "MEAN_ANOMALY": 136.0211, "EPHEMERIS_TYPE": 0, "CLASSIFICATION_TYPE": "U", "NORAD_CAT_ID": 66365, "ELEMENT_SET_NO": 999, "REV_AT_EPOCH": 538, "BSTAR": -0.024027805, "MEAN_MOTION_DOT": -0.02013529, "MEAN_MOTION_DDOT": 0}, "tle": {"line1": "1 66365U 25254T   25337.33335648 -.02013529  00000+0 -24028-1 0  9999", "line2": "2 66365  53.1597 321.6779 0001377  86.9991 136.0211 15.63790656  5381"}}, "geometry": {"type": "Point", "coordinates": [-157.08242325802132, -49.8774254985122]}}, {"type": "Feature", "properties": {"norad_id": 66366, "name": "STARLINK-35845", "group": "last-30-days", "lat": -49.17261672580278, "lon": -159.71037075313154, "alt_km": 386.89647244191383, "timestamp": "2025-12-03T15:48:01.918318+00:00", "meta": {"OBJECT_NAME": "STARLINK-35845", "OBJECT_ID": "2025-254U", "EPOCH": "2025-12-03T08:00:01.999872", "MEAN_MOTION": 15.63765719, "ECCENTRICITY": 0.00014668, "INCLINATION": 53.1601, "RA_OF_ASC_NODE": 321.6809, "ARG_OF_PERICENTER": 58.4006, "MEAN_ANOMALY": 162.8533, "EPHEMERIS_TYPE": 0, "CLASSIFICATION_TYPE": "U", "NORAD_CAT_ID": 66366, "ELEMENT_SET_NO": 999, "REV_AT_EPOCH": 541, "BSTAR": -0.025447324, "MEAN_MOTION_DOT": -0.0211521, "MEAN_MOTION_DDOT": 0}, "tle": {"line1": "1 66366U 25254U   25337.33335648 -.02115210  00000+0 -25447-1 0  9996", "line2": "2 66366  53.1601 321.6809 0001466  58.4006 162.8533 15.63765719  5412"}}, "geometry": {"type": "Point", "coordinates": [-159.71037075313154, -49.17261672580278]}}, {"type": "Feature", "properties": {"norad_id": 66367, "name": "STARLINK-35846", "group": "last-30-days", "lat": -50.543067167078945, "lon": -154.28432919190035, "alt_km": 386.5735644683109, "timestamp": "2025-12-03T15:48:01.918328+00:00", "meta": {"OBJECT_NAME": "STARLINK-35846", "OBJECT_ID": "2025-254V", "EPOCH": "2025-12-03T08:00:01.999872", "MEAN_MOTION": 15.63789818, "ECCENTRICITY": 0.00014323, "INCLINATION": 53.1596, "RA_OF_ASC_NODE": 321.6726, "ARG_OF_PERICENTER": 87.7395, "MEAN_ANOMALY": 137.1986, "EPHEMERIS_TYPE": 0, "CLASSIFICATION_TYPE": "U", "NORAD_CAT_ID": 66367, "ELEMENT_SET_NO": 999, "REV_AT_EPOCH": 536, "BSTAR": -0.024021917, "MEAN_MOTION_DOT": -0.0201308, "MEAN_MOTION_DDOT": 0}, "tle": {"line1": "1 66367U 25254V   25337.33335648 -.02013080  00000+0 -24022-1 0  9997", "line2": "2 66367  53.1596 321.6726 0001432  87.7395 137.1986 15.63789818  5360"}}, "geometry": {"type": "Point", "coordinates": [-154.28432919190035, -50.543067167078945]}}, {"type": "Feature", "properties": {"norad_id": 66368, "name": "STARLINK-34861", "group": "last-30-days", "lat": -33.54705997502021, "lon": -69.8553930232812, "alt_km": 351.1598783492491, "timestamp": "2025-12-03T15:48:01.918340+00:00", "meta": {"OBJECT_NAME": "STARLINK-34861", "OBJECT_ID": "2025-254W", "EPOCH": "2025-12-03T06:50:38.898816", "MEAN_MOTION": 15.74252376, "ECCENTRICITY": 0.00015333, "INCLINATION": 53.1571, "RA_OF_ASC_NODE": 321.8109, "ARG_OF_PERICENTER": 98.402, "MEAN_ANOMALY": 261.7174, "EPHEMERIS_TYPE": 0, "CLASSIFICATION_TYPE": "U", "NORAD_CAT_ID": 66368, "ELEMENT_SET_NO": 999, "REV_AT_EPOCH": 419, "BSTAR": 0.0014834231, "MEAN_MOTION_DOT": 0.00223081, "MEAN_MOTION_DDOT": 0}, "tle": {"line1": "1 66368U 25254W   25337.28517244  .00223081  00000+0  14834-2 0  9997", "line2": "2 66368  53.1571 321.8109 0001533  98.4020 261.7174 15.74252376  4196"}}, "geometry": {"type": "Point", "coordinates": [-69.8553930232812, -33.54705997502021]}}, {"type": "Feature", "properties": {"norad_id": 66369, "name": "STARLINK-35795", "group": "last-30-days", "lat": -34.823650832785646, "lon": -71.47760627273834, "alt_km": 351.1725428739719, "timestamp": "2025-12-03T15:48:01.918349+00:00", "meta": {"OBJECT_NAME": "STARLINK-35795", "OBJECT_ID": "2025-254X", "EPOCH": "2025-12-03T06:51:08.116704", "MEAN_MOTION": 15.74275653, "ECCENTRICITY": 0.00016685, "INCLINATION": 53.1571, "RA_OF_ASC_NODE": 321.8129, "ARG_OF_PERICENTER": 101.9216, "MEAN_ANOMALY": 258.1991, "EPHEMERIS_TYPE": 0, "CLASSIFICATION_TYPE": "U", "NORAD_CAT_ID": 66369, "ELEMENT_SET_NO": 999, "REV_AT_EPOCH": 419, "BSTAR": 0.0018612851, "MEAN_MOTION_DOT": 0.00282348, "MEAN_MOTION_DDOT": 0}, "tle": {"line1": "1 66369U 25254X   25337.28551061  .00282348  00000+0  18613-2 0  9993", "line2": "2 66369  53.1571 321.8129 0001668 101.9216 258.1991 15.74275653  4195"}}, "geometry": {"type": "Point", "coordinates": [-71.47760627273834, -34.823650832785646]}}, {"type": "Feature", "properties": {"norad_id": 66370, "name": "STARLINK-35824", "group": "last-30-days", "lat": -32.17279392291202, "lon": -68.18855979158137, "alt_km": 351.05365069130585, "timestamp": "2025-12-03T15:48:01.918358+00:00", "meta": {"OBJECT_NAME": "STARLINK-35824", "OBJECT_ID": "2025-254Y", "EPOCH": "2025-12-03T05:18:44.173440", "MEAN_MOTION": 15.74249015, "ECCENTRICITY": 0.00013323, "INCLINATION": 53.1574, "RA_OF_ASC_NODE": 322.1247, "ARG_OF_PERICENTER": 113.3135, "MEAN_ANOMALY": 246.8026, "EPHEMERIS_TYPE": 0, "CLASSIFICATION_TYPE": "U", "NORAD_CAT_ID": 66370, "ELEMENT_SET_NO": 999, "REV_AT_EPOCH": 418, "BSTAR": 0.0013568804, "MEAN_MOTION_DOT": 0.00203488, "MEAN_MOTION_DDOT": 0}, "tle": {"line1": "1 66370U 25254Y   25337.22134460  .00203488  00000+0  13569-2 0  9992", "line2": "2 66370  53.1574 322.1247 0001332 113.3135 246.8026 15.74249015  4185"}}, "geometry": {"type": "Point", "coordinates": [-68.18855979158137, -32.17279392291202]}}, {"type": "Feature", "properties": {"norad_id": 66371, "name": "STARLINK-35804", "group": "last-30-days", "lat": -29.513042856801555, "lon": -65.16995522481105, "alt_km": 350.80326653581324, "timestamp": "2025-12-03T15:48:01.918367+00:00", "meta": {"OBJECT_NAME": "STARLINK-35804", "OBJECT_ID": "2025-254Z", "EPOCH": "2025-12-03T06:49:11.398080", "MEAN_MOTION": 15.74228008, "ECCENTRICITY": 0.00015121, "INCLINATION": 53.1571, "RA_OF_ASC_NODE": 321.8037, "ARG_OF_PERICENTER": 84.8649, "MEAN_ANOMALY": 275.2543, "EPHEMERIS_TYPE": 0, "CLASSIFICATION_TYPE": "U", "NORAD_CAT_ID": 66371, "ELEMENT_SET_NO": 999, "REV_AT_EPOCH": 419, "BSTAR": 0.0012474796, "MEAN_MOTION_DOT": 0.00186481, "MEAN_MOTION_DDOT": 0}, "tle": {"line1": "1 66371U 25254Z   25337.28415970  .00186481  00000+0  12475-2 0  9995", "line2": "2 66371  53.1571 321.8037 0001512  84.8649 275.2543 15.74228008  4198"}}, "geometry": {"type": "Point", "coordinates": [-65.16995522481105, -29.513042856801555]}}, {"type": "Feature", "properties": {"norad_id": 66372, "name": "STARLINK-35821", "group": "last-30-days", "lat": -30.83078588401324, "lon": -66.63377146466092, "alt_km": 350.63183661377207, "timestamp": "2025-12-03T15:48:01.918377+00:00", "meta": {"OBJECT_NAME": "STARLINK-35821", "OBJECT_ID": "2025-254AA", "EPOCH": "2025-12-03T05:18:15.270048", "MEAN_MOTION": 15.74236569, "ECCENTRICITY": 0.00016686, "INCLINATION": 53.1573, "RA_OF_ASC_NODE": 322.1225, "ARG_OF_PERICENTER": 76.593, "MEAN_ANOMALY": 283.5276, "EPHEMERIS_TYPE": 0, "CLASSIFICATION_TYPE": "U", "NORAD_CAT_ID": 66372, "ELEMENT_SET_NO": 999, "REV_AT_EPOCH": 418, "BSTAR": 0.001549889, "MEAN_MOTION_DOT": 0.00233229, "MEAN_MOTION_DDOT": 0}, "tle": {"line1": "1 66372U 25254AA  25337.22101007  .00233229  00000+0  15499-2 0  9995", "line2": "2 66372  53.1573 322.1225 0001668  76.5930 283.5276 15.74236569  4182"}}, "geometry": {"type": "Point", "coordinates": [-66.63377146466092, -30.83078588401324]}}, {"type": "Feature", "properties": {"norad_id": 66373, "name": "STARLINK-35809", "group": "last-30-days", "lat": -28.068840902880247, "lon": -63.626058695915525, "alt_km": 350.9334021075056, "timestamp": "2025-12-03T15:48:01.918386+00:00", "meta": {"OBJECT_NAME": "STARLINK-35809", "OBJECT_ID": "2025-254AB", "EPOCH": "2025-12-03T06:48:41.973696", "MEAN_MOTION": 15.74252035, "ECCENTRICITY": 0.0001527, "INCLINATION": 53.1571, "RA_OF_ASC_NODE": 321.8017, "ARG_OF_PERICENTER": 116.7722, "MEAN_ANOMALY": 243.3454, "EPHEMERIS_TYPE": 0, "CLASSIFICATION_TYPE": "U", "NORAD_CAT_ID": 66373, "ELEMENT_SET_NO": 999, "REV_AT_EPOCH": 419, "BSTAR": 0.0014379173, "MEAN_MOTION_DOT": 0.00216032, "MEAN_MOTION_DDOT": 0}, "tle": {"line1": "1 66373U 25254AB  25337.28381914  .00216032  00000+0  14379-2 0  9998", "line2": "2 66373  53.1571 321.8017 0001527 116.7722 243.3454 15.74252035  4195"}}, "geometry": {"type": "Point", "coordinates": [-63.626058695915525, -28.068840902880247]}}, {"type": "Feature", "properties": {"norad_id": 66374, "name": "STARLINK-35831", "group": "last-30-days", "lat": -26.61917039699, "lon": -62.13571302535689, "alt_km": 350.38573566484956, "timestamp": "2025-12-03T15:48:01.918395+00:00", "meta": {"OBJECT_NAME": "STARLINK-35831", "OBJECT_ID": "2025-254AC", "EPOCH": "2025-12-03T05:16:47.597376", "MEAN_MOTION": 15.74248374, "ECCENTRICITY": 0.0001609, "INCLINATION": 53.1571, "RA_OF_ASC_NODE": 322.1142, "ARG_OF_PERICENTER": 89.282, "MEAN_ANOMALY": 270.8384, "EPHEMERIS_TYPE": 0, "CLASSIFICATION_TYPE": "U", "NORAD_CAT_ID": 66374, "ELEMENT_SET_NO": 999, "REV_AT_EPOCH": 418, "BSTAR": 0.0016263012, "MEAN_MOTION_DOT": 0.00245236, "MEAN_MOTION_DDOT": 0}, "tle": {"line1": "1 66374U 25254AC  25337.21999534  .00245236  00000+0  16263-2 0  9997", "line2": "2 66374  53.1571 322.1142 0001609  89.2820 270.8384 15.74248374  4180"}}, "geometry": {"type": "Point", "coordinates": [-62.13571302535689, -26.61917039699]}}]}